start=new Date('2023-06-03T00:00:00.000Z').valueOf();
sats=[{"GP_ID":"233040693","FILE":"3923342","ECCENTRICITY":"0.00013220","TLE_LINE1":"1 53728U 22107AE  23153.26601539  .00004731  00000-0  31482-3 0  9999","LAUNCH_DATE":"2022-09-05","INCLINATION":"53.2164","PERIOD":"95.435","EPOCH":"2023-06-02T06:23:03.729696","MEAN_MOTION":"15.08875497","TIME_SYSTEM":"UTC","REF_FRAME":"TEME","OBJECT_NAME":"STARLINK-4640","MEAN_MOTION_DOT":"0.00004731","EPHEMERIS_TYPE":"0","PERIAPSIS":"538.722","CLASSIFICATION_TYPE":"U","BSTAR":"0.00031482000000","TLE_LINE2":"2 53728  53.2164 114.5299 0001322  87.5259 272.5885 15.08875497 41863","APOAPSIS":"540.551","ARG_OF_PERICENTER":"87.5259","RCS_SIZE":"LARGE","REV_AT_EPOCH":"4186","SEMIMAJOR_AXIS":"6917.772","DECAY_DATE":null,"CENTER_NAME":"EARTH","COUNTRY_CODE":"US","RA_OF_ASC_NODE":"114.5299","NORAD_CAT_ID":"53728","MEAN_ELEMENT_THEORY":"SGP4","OBJECT_ID":"2022-107AE","SITE":"AFETR","MEAN_MOTION_DDOT":"0.0000000000000","MEAN_ANOMALY":"272.5885","ELEMENT_SET_NO":"999","OBJECT_TYPE":"PAYLOAD"},{"TLE_LINE1":"1 53729U 22107AF  23153.21454578  .00000018  00000-0  19245-4 0  9992","ECCENTRICITY":"0.00011910","FILE":"3923342","GP_ID":"233039942","INCLINATION":"53.2166","LAUNCH_DATE":"2022-09-05","EPOCH":"2023-06-02T05:08:56.755392","PERIOD":"95.438","MEAN_MOTION":"15.08839228","EPHEMERIS_TYPE":"0","MEAN_MOTION_DOT":"0.00000018","OBJECT_NAME":"STARLINK-4651","REF_FRAME":"TEME","TIME_SYSTEM":"UTC","PERIAPSIS":"538.924","BSTAR":"0.00001924500000","CLASSIFICATION_TYPE":"U","APOAPSIS":"540.572","TLE_LINE2":"2 53729  53.2166 114.9173 0001191  85.7081 274.4047 15.08839228 41883","ARG_OF_PERICENTER":"85.7081","RCS_SIZE":"LARGE","CENTER_NAME":"EARTH","DECAY_DATE":null,"SEMIMAJOR_AXIS":"6917.883","REV_AT_EPOCH":"4188","NORAD_CAT_ID":"53729","RA_OF_ASC_NODE":"114.9173","COUNTRY_CODE":"US","SITE":"AFETR","OBJECT_ID":"2022-107AF","MEAN_ELEMENT_THEORY":"SGP4","MEAN_ANOMALY":"274.4047","MEAN_MOTION_DDOT":"0.0000000000000","OBJECT_TYPE":"PAYLOAD","ELEMENT_SET_NO":"999"},{"TIME_SYSTEM":"UTC","REF_FRAME":"TEME","MEAN_MOTION_DOT":"-0.00001897","OBJECT_NAME":"STARLINK-4641","EPHEMERIS_TYPE":"0","MEAN_MOTION":"15.08840784","CLASSIFICATION_TYPE":"U","BSTAR":"-0.00010113000000","PERIAPSIS":"538.872","FILE":"3923342","GP_ID":"233039692","ECCENTRICITY":"0.00012590","TLE_LINE1":"1 53730U 22107AG  23153.27341588 -.00001897  00000-0 -10113-3 0  9998","PERIOD":"95.438","EPOCH":"2023-06-02T06:33:43.132032","LAUNCH_DATE":"2022-09-05","INCLINATION":"53.2166","MEAN_ELEMENT_THEORY":"SGP4","OBJECT_ID":"2022-107AG","SITE":"AFETR","COUNTRY_CODE":"US","RA_OF_ASC_NODE":"114.5753","NORAD_CAT_ID":"53730","ELEMENT_SET_NO":"999","OBJECT_TYPE":"PAYLOAD","MEAN_MOTION_DDOT":"0.0000000000000","MEAN_ANOMALY":"270.1272","ARG_OF_PERICENTER":"89.9865","TLE_LINE2":"2 53730  53.2166 114.5753 0001259  89.9865 270.1272 15.08840784 41866","APOAPSIS":"540.614","REV_AT_EPOCH":"4186","SEMIMAJOR_AXIS":"6917.878","DECAY_DATE":null,"CENTER_NAME":"EARTH","RCS_SIZE":"LARGE"},{"TIME_SYSTEM":"UTC","EPHEMERIS_TYPE":"0","OBJECT_NAME":"STARLINK-4636","REF_FRAME":"TEME","MEAN_MOTION_DOT":"-0.00000189","MEAN_MOTION":"15.08836395","CLASSIFICATION_TYPE":"U","BSTAR":"0.00000623650000","PERIAPSIS":"538.866","GP_ID":"233040944","FILE":"3923342","TLE_LINE1":"1 53731U 22107AH  23153.21823307 -.00000189  00000-0  62365-5 0  9997","ECCENTRICITY":"0.00012870","EPOCH":"2023-06-02T05:14:15.337248","PERIOD":"95.438","LAUNCH_DATE":"2022-09-05","INCLINATION":"53.2166","MEAN_ELEMENT_THEORY":"SGP4","SITE":"AFETR","OBJECT_ID":"2022-107AH","COUNTRY_CODE":"US","NORAD_CAT_ID":"53731","RA_OF_ASC_NODE":"114.9407","OBJECT_TYPE":"PAYLOAD","ELEMENT_SET_NO":"999","MEAN_MOTION_DDOT":"0.0000000000000","MEAN_ANOMALY":"271.8310","ARG_OF_PERICENTER":"88.2830","APOAPSIS":"540.647","TLE_LINE2":"2 53731  53.2166 114.9407 0001287  88.2830 271.8310 15.08836395 41888","REV_AT_EPOCH":"4188","DECAY_DATE":null,"CENTER_NAME":"EARTH","SEMIMAJOR_AXIS":"6917.891","RCS_SIZE":"LARGE"},{"COUNTRY_CODE":"US","NORAD_CAT_ID":"53732","RA_OF_ASC_NODE":"114.6010","MEAN_ELEMENT_THEORY":"SGP4","SITE":"AFETR","OBJECT_ID":"2022-107AJ","MEAN_MOTION_DDOT":"0.0000000000000","MEAN_ANOMALY":"266.4575","OBJECT_TYPE":"PAYLOAD","ELEMENT_SET_NO":"999","APOAPSIS":"540.551","TLE_LINE2":"2 53732  53.2159 114.6010 0001107  93.6544 266.4575 15.08826903 41866","ARG_OF_PERICENTER":"93.6544","RCS_SIZE":"LARGE","REV_AT_EPOCH":"4186","DECAY_DATE":null,"CENTER_NAME":"EARTH","SEMIMAJOR_AXIS":"6917.920","MEAN_MOTION":"15.08826903","TIME_SYSTEM":"UTC","EPHEMERIS_TYPE":"0","REF_FRAME":"TEME","MEAN_MOTION_DOT":"0.00000052","OBJECT_NAME":"STARLINK-4661","PERIAPSIS":"539.020","CLASSIFICATION_TYPE":"U","BSTAR":"0.00002136100000","GP_ID":"233041193","FILE":"3923342","TLE_LINE1":"1 53732U 22107AJ  23153.27805156  .00000052  00000-0  21361-4 0  9994","ECCENTRICITY":"0.00011070","LAUNCH_DATE":"2022-09-05","INCLINATION":"53.2159","EPOCH":"2023-06-02T06:40:23.654784","PERIOD":"95.438"},{"ARG_OF_PERICENTER":"86.5702","APOAPSIS":"540.619","TLE_LINE2":"2 53733  53.2153 113.2030 0001263  86.5702 273.5435 15.08840073 41945","REV_AT_EPOCH":"4194","CENTER_NAME":"EARTH","DECAY_DATE":null,"SEMIMAJOR_AXIS":"6917.880","RCS_SIZE":"LARGE","MEAN_ELEMENT_THEORY":"SGP4","SITE":"AFETR","OBJECT_ID":"2022-107AK","COUNTRY_CODE":"US","NORAD_CAT_ID":"53733","RA_OF_ASC_NODE":"113.2030","OBJECT_TYPE":"PAYLOAD","ELEMENT_SET_NO":"999","MEAN_MOTION_DDOT":"0.0000000000000","MEAN_ANOMALY":"273.5435","FILE":"3923570","GP_ID":"233073282","TLE_LINE1":"1 53733U 22107AK  23153.62303926  .00000213  00000-0  31496-4 0  9991","ECCENTRICITY":"0.00012630","EPOCH":"2023-06-02T14:57:10.592064","PERIOD":"95.438","LAUNCH_DATE":"2022-09-05","INCLINATION":"53.2153","TIME_SYSTEM":"UTC","EPHEMERIS_TYPE":"0","OBJECT_NAME":"STARLINK-4574","REF_FRAME":"TEME","MEAN_MOTION_DOT":"0.00000213","MEAN_MOTION":"15.08840073","CLASSIFICATION_TYPE":"U","BSTAR":"0.00003149600000","PERIAPSIS":"538.871"},{"REV_AT_EPOCH":"4189","SEMIMAJOR_AXIS":"6917.848","DECAY_DATE":null,"CENTER_NAME":"EARTH","RCS_SIZE":"LARGE","ARG_OF_PERICENTER":"96.5663","TLE_LINE2":"2 53734  53.2155 114.5994 0000991  96.5663 263.5442 15.08850505 41897","APOAPSIS":"540.399","ELEMENT_SET_NO":"999","OBJECT_TYPE":"PAYLOAD","MEAN_MOTION_DDOT":"0.0000000000000","MEAN_ANOMALY":"263.5442","MEAN_ELEMENT_THEORY":"SGP4","OBJECT_ID":"2022-107AL","SITE":"AFETR","COUNTRY_CODE":"US","RA_OF_ASC_NODE":"114.5994","NORAD_CAT_ID":"53734","PERIOD":"95.437","EPOCH":"2023-06-02T06:39:01.294848","LAUNCH_DATE":"2022-09-05","INCLINATION":"53.2155","GP_ID":"233040192","FILE":"3923342","ECCENTRICITY":"0.00009910","TLE_LINE1":"1 53734U 22107AL  23153.27709832  .00001348  00000-0  10276-3 0  9991","CLASSIFICATION_TYPE":"U","BSTAR":"0.00010276000000","PERIAPSIS":"539.028","TIME_SYSTEM":"UTC","REF_FRAME":"TEME","OBJECT_NAME":"STARLINK-4616","MEAN_MOTION_DOT":"0.00001348","EPHEMERIS_TYPE":"0","MEAN_MOTION":"15.08850505"},{"MEAN_MOTION":"15.08838395","TIME_SYSTEM":"UTC","REF_FRAME":"TEME","OBJECT_NAME":"STARLINK-4618","MEAN_MOTION_DOT":"0.00000108","EPHEMERIS_TYPE":"0","PERIAPSIS":"538.992","CLASSIFICATION_TYPE":"U","BSTAR":"0.00002489200000","GP_ID":"233040445","FILE":"3923342","ECCENTRICITY":"0.00010960","TLE_LINE1":"1 53735U 22107AM  23153.18782953  .00000108  00000-0  24892-4 0  9990","LAUNCH_DATE":"2022-09-05","INCLINATION":"53.2155","PERIOD":"95.438","EPOCH":"2023-06-02T04:30:28.471392","COUNTRY_CODE":"US","RA_OF_ASC_NODE":"124.7401","NORAD_CAT_ID":"53735","MEAN_ELEMENT_THEORY":"SGP4","OBJECT_ID":"2022-107AM","SITE":"AFETR","MEAN_MOTION_DDOT":"0.0000000000000","MEAN_ANOMALY":"272.2005","ELEMENT_SET_NO":"999","OBJECT_TYPE":"PAYLOAD","TLE_LINE2":"2 53735  53.2155 124.7401 0001096  87.9112 272.2005 15.08838395 41743","APOAPSIS":"540.508","ARG_OF_PERICENTER":"87.9112","RCS_SIZE":"LARGE","REV_AT_EPOCH":"4174","SEMIMAJOR_AXIS":"6917.885","DECAY_DATE":null,"CENTER_NAME":"EARTH"},{"ECCENTRICITY":"0.00012930","TLE_LINE1":"1 53736U 22107AN  23153.15567516 -.00000100  00000-0  11834-4 0  9999","FILE":"3923342","GP_ID":"233040694","INCLINATION":"53.2167","LAUNCH_DATE":"2022-09-05","PERIOD":"95.438","EPOCH":"2023-06-02T03:44:10.333824","MEAN_MOTION":"15.08839636","REF_FRAME":"TEME","OBJECT_NAME":"STARLINK-4652","MEAN_MOTION_DOT":"-0.00000100","EPHEMERIS_TYPE":"0","TIME_SYSTEM":"UTC","PERIAPSIS":"538.852","BSTAR":"0.00001183400000","CLASSIFICATION_TYPE":"U","TLE_LINE2":"2 53736  53.2167 115.2603 0001293  94.1491 265.9649 15.08839636 41871","APOAPSIS":"540.641","ARG_OF_PERICENTER":"94.1491","RCS_SIZE":"LARGE","SEMIMAJOR_AXIS":"6917.882","CENTER_NAME":"EARTH","DECAY_DATE":null,"REV_AT_EPOCH":"4187","RA_OF_ASC_NODE":"115.2603","NORAD_CAT_ID":"53736","COUNTRY_CODE":"US","OBJECT_ID":"2022-107AN","SITE":"AFETR","MEAN_ELEMENT_THEORY":"SGP4","MEAN_ANOMALY":"265.9649","MEAN_MOTION_DDOT":"0.0000000000000","ELEMENT_SET_NO":"999","OBJECT_TYPE":"PAYLOAD"},{"MEAN_MOTION_DDOT":"0.0000000000000","MEAN_ANOMALY":"271.9046","ELEMENT_SET_NO":"999","OBJECT_TYPE":"PAYLOAD","COUNTRY_CODE":"US","RA_OF_ASC_NODE":"124.1683","NORAD_CAT_ID":"53737","MEAN_ELEMENT_THEORY":"SGP4","OBJECT_ID":"2022-107AP","SITE":"AFETR","RCS_SIZE":"LARGE","REV_AT_EPOCH":"4191","SEMIMAJOR_AXIS":"6917.886","DECAY_DATE":null,"CENTER_NAME":"EARTH","TLE_LINE2":"2 53737  53.2155 124.1683 0001152  88.2078 271.9046 15.08838063 41911","APOAPSIS":"540.548","ARG_OF_PERICENTER":"88.2078","PERIAPSIS":"538.954","CLASSIFICATION_TYPE":"U","BSTAR":"-0.00000775680000","MEAN_MOTION":"15.08838063","TIME_SYSTEM":"UTC","OBJECT_NAME":"STARLINK-4646","MEAN_MOTION_DOT":"-0.00000411","REF_FRAME":"TEME","EPHEMERIS_TYPE":"0","LAUNCH_DATE":"2022-09-05","INCLINATION":"53.2155","PERIOD":"95.438","EPOCH":"2023-06-02T07:46:33.168864","GP_ID":"233039943","FILE":"3923342","ECCENTRICITY":"0.00011520","TLE_LINE1":"1 53737U 22107AP  23153.32399501 -.00000411  00000-0 -77568-5 0  9999"}];
